NORAD_CAT_ID,OBJECT_NAME,OBJECT_TYPE,EPOCH,MEAN_MOTION,ECCENTRICITY,INCLINATION,RA_OF_ASC_NODE,ARG_OF_PERICENTER,MEAN_ANOMALY,BSTAR,MEAN_MOTION_DOT,MEAN_MOTION_DDOT,TLE_LINE0,TLE_LINE1,TLE_LINE2,SEMIMAJOR_AXIS,PERIOD,APOGEE,PERIGEE,DECAYED
51731.0,STARLINK-3514,PAYLOAD,2023-01-17 03:14:14,15.08817062,0.0001513,53.2154,70.7006,81.0996,279.0167,-0.00060002,-9.819e-05,0.0,0 STARLINK-3514,1 51731U 22016T   23017.13488778 -.00009819  00000-0 -60002-3 0  9997,2 51731  53.2154  70.7006 0001513  81.0996 279.0167 15.08817062 51435,6917.951,95.439,540.862,538.769,0.0
51731.0,STARLINK-3514,PAYLOAD,2023-01-17 12:46:34,15.08816336,0.0001439,53.2156,68.9165,86.2864,273.8293,0.0022435,0.00035575,0.0,0 STARLINK-3514,1 51731U 22016T   23017.53233841  .00035575  00000-0  22435-2 0  9993,2 51731  53.2156  68.9165 0001439  86.2864 273.8293 15.08816336 50388,6917.953,95.439,540.813,538.822,0.0
51731.0,STARLINK-3514,PAYLOAD,2023-01-18 09:26:34,15.08884456,0.0001582,53.2159,65.0509,87.3985,272.7188,0.0029449,0.0004695,0.0,0 STARLINK-3514,1 51731U 22016T   23018.39345525  .00046950  00000-0  29449-2 0  9992,2 51731  53.2159  65.0509 0001582  87.3985 272.7188 15.08884456 50510,6917.745,95.435,540.7040000000001,538.515,0.0
51731.0,STARLINK-3514,PAYLOAD,2023-01-18 20:34:16,15.08882191,0.0001781,53.2163,62.9695,86.5513,273.5683,0.0018647,0.00029548,0.0,0 STARLINK-3514,1 51731U 22016T   23018.85713034  .00029548  00000-0  18647-2 0  9999,2 51731  53.2163  62.9695 0001781  86.5513 273.5683 15.08882191 51699,6917.751,95.435,540.8480000000001,538.384,0.0
51731.0,STARLINK-3514,PAYLOAD,2023-01-19 02:55:48,15.08881356,0.0002148,53.2164,61.7793,98.3909,261.7326,0.001912,0.00030308,0.0,0 STARLINK-3514,1 51731U 22016T   23019.12208702  .00030308  00000-0  19120-2 0  9994,2 51731  53.2164  61.7793 0002148  98.3909 261.7326 15.08881356 51734,6917.754,95.435,541.105,538.133,0.0
51731.0,STARLINK-3514,PAYLOAD,2023-01-19 09:17:20,15.08881503,0.000204,53.2166,60.5901,92.6836,267.4389,0.001357,0.00021399,0.0,0 STARLINK-3514,1 51731U 22016T   23019.38704129  .00021399  00000-0  13570-2 0  9999,2 51731  53.2166  60.5901 0002040  92.6836 267.4389 15.08881503 51771,6917.754,95.435,541.03,538.207,0.0
51731.0,STARLINK-3514,PAYLOAD,2023-01-19 12:28:06,15.08887979,0.0001355,53.2165,59.9962,90.2183,269.8964,0.0026851999999999,0.00042763,0.0,0 STARLINK-3514,1 51731U 22016T   23019.51951824  .00042763  00000-0  26852-2 0  9995,2 51731  53.2165  59.9962 0001355  90.2183 269.8964 15.08887979 50683,6917.734,95.435,540.536,538.661,0.0
51731.0,STARLINK-3514,PAYLOAD,2023-01-20 09:08:07,15.08834535,0.0001344,53.2166,56.1295,113.2225,246.8909,0.00094976,0.00014857,0.0,0 STARLINK-3514,1 51731U 22016T   23020.38064619  .00014857  00000-0  94976-3 0  9995,2 51731  53.2166  56.1295 0001344 113.2225 246.8909 15.08834535 51925,6917.897,95.438,540.692,538.832,0.0
51731.0,STARLINK-3514,PAYLOAD,2023-01-21 05:48:09,15.08839803,0.0001341999999999,53.2164,52.2638,107.6995,252.4144,0.00095786,0.00014989,0.0,0 STARLINK-3514,1 51731U 22016T   23021.24177408  .00014989  00000-0  95786-3 0  9998,2 51731  53.2164  52.2638 0001342 107.6995 252.4144 15.08839803 52052,6917.880999999999,95.438,540.674,538.818,0.0
51731.0,STARLINK-3514,PAYLOAD,2023-01-21 12:09:41,15.08856239,0.0001291,53.2159,51.0753,106.0919,254.0215,0.0019082,0.00030225,0.0,0 STARLINK-3514,1 51731U 22016T   23021.50673249  .00030225  00000-0  19082-2 0  9996,2 51731  53.2159  51.0753 0001291 106.0919 254.0215 15.08856239 52096,6917.831,95.437,540.589,538.803,0.0
51731.0,STARLINK-3514,PAYLOAD,2023-01-22 08:49:42,15.08859972,0.0001219,53.2152,47.206,77.075,283.0378,0.0014317,0.00022583,0.0,0 STARLINK-3514,1 51731U 22016T   23022.36785252  .00022583  00000-0  14317-2 0  9993,2 51731  53.2152  47.2060 0001219  77.0750 283.0378 15.08859972 52221,6917.819,95.436,540.528,538.841,0.0
51731.0,STARLINK-3514,PAYLOAD,2023-01-22 18:22:01,15.08856245,0.0001145,53.2154,45.4234,76.9956,283.1164,0.001059,0.00016614,0.0,0 STARLINK-3514,1 51731U 22016T   23022.76529146  .00016614  00000-0  10590-2 0  9992,2 51731  53.2154  45.4234 0001145  76.9956 283.1164 15.08856245 52280,6917.831,95.437,540.488,538.904,0.0
51731.0,STARLINK-3514,PAYLOAD,2023-01-23 02:18:57,15.08834186,0.0001319,53.2158,43.9375,94.7105,265.4038,0.0003876,5.885e-05,0.0,0 STARLINK-3514,1 51731U 22016T   23023.09649452  .00005885  00000-0  38760-3 0  9990,2 51731  53.2158  43.9375 0001319  94.7105 265.4038 15.08834186 52339,6917.898,95.438,540.6759999999999,538.851,0.0
51731.0,STARLINK-3514,PAYLOAD,2023-01-24 05:20:30,15.08845186,0.0001573,53.2149,38.8818,88.5408,271.5764,0.00090628,0.00014167,0.0,0 STARLINK-3514,1 51731U 22016T   23024.22257913  .00014167  00000-0  90628-3 0  9997,2 51731  53.2149  38.8818 0001573  88.5408 271.5764 15.08845186 52508,6917.865,95.437,540.818,538.641,0.0
51731.0,STARLINK-3514,PAYLOAD,2023-01-24 18:03:35,15.088459099999998,0.0001638,53.2152,36.5027,85.8726,274.2454,0.0004062,6.184e-05,0.0,0 STARLINK-3514,1 51731U 22016T   23024.75249815  .00006184  00000-0  40620-3 0  9994,2 51731  53.2152  36.5027 0001638  85.8726 274.2454 15.08845910 52583,6917.861999999999,95.437,540.86,538.594,0.0
51731.0,STARLINK-3514,PAYLOAD,2023-01-25 09:57:27,15.08843927,0.000132,53.2157,33.5264,99.949,260.1651,0.00021611,3.154e-05,0.0,0 STARLINK-3514,1 51731U 22016T   23025.41489723  .00003154  00000-0  21611-3 0  9995,2 51731  53.2157  33.5264 0001320  99.9490 260.1651 15.08843927 52680,6917.868,95.437,540.6469999999999,538.82,0.0
51731.0,STARLINK-3514,PAYLOAD,2023-01-26 09:48:14,15.08845845,0.0001320999999999,53.2166,29.0662,89.9128,270.2015,0.00031698,4.761e-05,0.0,0 STARLINK-3514,1 51731U 22016T   23026.40849991  .00004761  00000-0  31698-3 0  9993,2 51731  53.2166  29.0662 0001321  89.9128 270.2015 15.08845845 51721,6917.863,95.437,540.641,538.814,0.0
51731.0,STARLINK-3514,PAYLOAD,2023-01-27 09:39:01,15.08849231,0.0001382,53.2174,24.6051,95.6723,264.4427,0.00030882,4.632e-05,0.0,0 STARLINK-3514,1 51731U 22016T   23027.40209811  .00004632  00000-0  30882-3 0  9996,2 51731  53.2174  24.6051 0001382  95.6723 264.4427 15.08849231 52989,6917.852,95.437,540.673,538.761,0.0
51731.0,STARLINK-3514,PAYLOAD,2023-01-28 06:19:02,15.08843365,0.000107,53.216,20.7418,89.5549,270.5566,0.00012105,1.639e-05,0.0,0 STARLINK-3514,1 51731U 22016T   23028.26322044  .00001639  00000-0  12105-3 0  9997,2 51731  53.2160  20.7418 0001070  89.5549 270.5566 15.08843365 53110,6917.87,95.437,540.475,538.995,0.0
51731.0,STARLINK-3514,PAYLOAD,2023-01-28 09:29:48,15.08846249,0.0001088,53.2163,20.147,91.1248,268.9869,0.00017334,2.472e-05,0.0,0 STARLINK-3514,1 51731U 22016T   23028.39569914  .00002472  00000-0  17334-3 0  9995,2 51731  53.2163  20.1470 0001088  91.1248 268.9869 15.08846249 52029,6917.861,95.437,540.479,538.974,0.0
51731.0,STARLINK-3514,PAYLOAD,2023-01-29 09:20:35,15.08846511,0.0001004,53.216,15.6865,91.2209,268.8898,0.00018384,2.64e-05,0.0,0 STARLINK-3514,1 51731U 22016T   23029.38929969  .00002640  00000-0  18384-3 0  9998,2 51731  53.2160  15.6865 0001004  91.2209 268.8898 15.08846511 53281,6917.86,95.437,540.42,539.031,0.0
51731.0,STARLINK-3514,PAYLOAD,2023-01-29 22:03:40,15.08837614,0.0001016,53.2159,13.3076,88.0332,272.0777,9.5431e-05,1.231e-05,0.0,0 STARLINK-3514,1 51731U 22016T   23029.91922431  .00001231  00000-0  95431-4 0  9998,2 51731  53.2159  13.3076 0001016  88.0332 272.0777 15.08837614 52255,6917.888,95.438,540.456,539.05,0.0
51731.0,STARLINK-3514,PAYLOAD,2023-01-30 07:35:59,15.08846254,9.95e-05,53.2158,11.5234,93.0727,267.0379,0.00020922,3.044e-05,0.0,0 STARLINK-3514,1 51731U 22016T   23030.31666064  .00003044  00000-0  20922-3 0  9997,2 51731  53.2158  11.5234 0000995  93.0727 267.0379 15.08846254 53421,6917.861,95.437,540.415,539.038,0.0
51731.0,STARLINK-3514,PAYLOAD,2023-01-30 21:54:27,15.08837891,0.0001092,53.216,8.8473,102.4327,257.6787,4.197e-05,3.8e-06,0.0,0 STARLINK-3514,1 51731U 22016T   23030.91282386  .00000380  00000-0  41970-4 0  9991,2 51731  53.2160   8.8473 0001092 102.4327 257.6787 15.08837891 52400,6917.887,95.438,540.507,538.996,0.0
51731.0,STARLINK-3514,PAYLOAD,2023-01-30 23:29:51,15.08838379,0.0001081,53.2159,8.5498,101.5954,258.516,3.0537e-05,1.98e-06,0.0,0 STARLINK-3514,1 51731U 22016T   23030.97906369  .00000198  00000-0  30537-4 0  9995,2 51731  53.2159   8.5498 0001081 101.5954 258.5160 15.08838379 53527,6917.885,95.438,540.498,539.003,0.0
51731.0,STARLINK-3514,PAYLOAD,2023-01-31 07:26:46,15.08846633,0.0001165,53.2152,7.0623,98.096,262.0164,0.00019335,2.791e-05,0.0,0 STARLINK-3514,1 51731U 22016T   23031.31026075  .00002791  00000-0  19335-3 0  9994,2 51731  53.2152   7.0623 0001165  98.0960 262.0164 15.08846633 52462,6917.86,95.437,540.531,538.919,0.0
51731.0,STARLINK-3514,PAYLOAD,2023-01-31 21:45:15,15.08842369,0.0001257,53.2164,4.3865,99.7616,260.3518,0.0001587,2.239e-05,0.0,0 STARLINK-3514,1 51731U 22016T   23031.90642386  .00002239  00000-0  15870-3 0  9995,2 51731  53.2164   4.3865 0001257  99.7616 260.3518 15.08842369 52557,6917.873,95.437,540.608,538.869,0.0
51731.0,STARLINK-3514,PAYLOAD,2023-02-01 07:17:33,15.0885196,0.0001211,53.2159,2.6023,93.0206,267.0925,0.00029953,4.484e-05,0.0,0 STARLINK-3514,1 51731U 22016T   23032.30385940  .00004484  00000-0  29953-3 0  9991,2 51731  53.2159   2.6023 0001211  93.0206 267.0925 15.08851960 52610,6917.844,95.437,540.547,538.871,0.0
51731.0,STARLINK-3514,PAYLOAD,2023-02-01 18:25:15,15.08839673,0.0001268,53.2158,0.5199,101.9715,258.1419,7.5602e-05,9.16e-06,0.0,0 STARLINK-3514,1 51731U 22016T   23032.76754377  .00000916  00000-0  75602-4 0  9994,2 51731  53.2158   0.5199 0001268 101.9715 258.1419 15.08839673 53792,6917.881,95.438,540.624,538.869,0.0
51731.0,STARLINK-3514,PAYLOAD,2023-02-02 03:57:34,15.08843926,0.0001188,53.2162,358.7364,98.7445,261.3682,0.00013487,1.859e-05,0.0,0 STARLINK-3514,1 51731U 22016T   23033.16498258  .00001859  00000-0  13487-3 0  9991,2 51731  53.2162 358.7364 0001188  98.7445 261.3682 15.08843926 52741,6917.868,95.437,540.555,538.912,0.0
